IRIDIUM 57 [-]          
1 25273U 98019B   23332.57143513  .00000759  00000+0  25990-3 0  9996
2 25273  86.3986  22.5385 0002172  93.6353 266.5091 14.34998569343509
IRIDIUM 63 [-]          
1 25286U 98021B   23332.52970487  .00000887  00000+0  30165-3 0  9998
2 25286  86.3957 319.4993 0002084  86.5752 273.5683 14.35504555342525
IRIDIUM 69 [-]          
1 25319U 98026A   23332.56055625  .00000942  00000+0  29482-3 0  9994
2 25319  86.3972 334.4620 0004483  91.0054 269.1658 14.39686072341503
IRIDIUM 71 [-]          
1 25320U 98026B   23332.53619577  .00000922  00000+0  28652-3 0  9991
2 25320  86.3960 329.2877 0003666 122.0172 238.1384 14.40009799342012
IRIDIUM 73 [-]          
1 25344U 98032C   23332.42771965  .00001366  00000+0  34668-3 0  9999
2 25344  86.4392 287.0657 0003020  90.4877 269.6674 14.50156590348389
IRIDIUM 82 [-]          
1 25467U 98051A   23332.56305407  .00016833  00000+0  96808-3 0  9994
2 25467  86.3971  20.7200 0141530 237.1825 121.5716 15.04158519338122
IRIDIUM 2 [-]           
1 25527U 98066A   23332.32555769  .00056557  00000+0  11362-2 0  9997
2 25527  85.5190  71.2114 0004507  33.8242 326.3301 15.46423768376421
